PELICAN-1               
1 58296U 23174AS  26191.21846570  .00006951  00000+0  54185-4 0  9996
2 58296  97.4009 293.0009 0002521 190.7359 169.3851 15.72060428149785
PELICAN-2               
1 62631U 25009Y   26192.72644474 -.00000013  00000+0  16442-5 0  9998
2 62631  97.2226 283.3278 0001877  92.7564 267.3898 15.40632585 83336
PELICAN-3               
1 65315U 25188A   26191.16651153  .00006031  00000+0  14836-3 0  9995
2 65315  97.1983 266.9739 0001716 106.3850 253.7585 15.40988618 48859
PELICAN-4               
1 65316U 25188B   26191.18393475  .00005927  00000+0  14597-3 0  9995
2 65316  97.1997 267.1461 0000870 109.1636 250.9706 15.40957945 48856
PELICAN-5               
1 66667U 25276B   26191.40728267  .00003932  00000+0  12936-3 0  9998
2 66667  97.4128 266.3707 0002252   8.0491 352.0786 15.32115292 34074
PELICAN-6               
1 66703U 25276AP  26192.77646317  .00023333  00000+0  77307-3 0  9995
2 66703  97.3729 267.7783 0002518  43.8687 316.2754 15.31288674 34294
PELICAN-7               
1 69017U 26100AP  26191.13720901  .00001193  00000+0  52869-4 0  9991
2 69017  97.3837  88.6625 0003266  96.9515 263.2094 15.23539259 10303
PELICAN-9               
1 69019U 26100AR  26191.33336806 -.00033799  00000+0 -14856-2 0  9993
2 69019  97.3779  88.7024 0001962  21.8654 123.0815 15.21995433  4974
